[{"OBJECT_NAME":"CUTE-1.7+APD II (CO-65)","OBJECT_ID":"2008-021C","EPOCH":"2026-03-09T21:54:04.726080","MEAN_MOTION":15.08376872,"ECCENTRICITY":0.00096053,"INCLINATION":97.8207,"RA_OF_ASC_NODE":48.3884,"ARG_OF_PERICENTER":18.7003,"MEAN_ANOMALY":341.4575,"EPHEMERIS_TYPE":0,"CLASSIFICATION_TYPE":"U","NORAD_CAT_ID":32785,"ELEMENT_SET_NO":999,"REV_AT_EPOCH":97022,"BSTAR":0.00047295391,"MEAN_MOTION_DOT":7.295e-5,"MEAN_MOTION_DDOT":0},{"OBJECT_NAME":"STARLINK-4032","OBJECT_ID":"2022-053AJ","EPOCH":"2026-03-09T12:32:54.779136","MEAN_MOTION":15.08838305,"ECCENTRICITY":0.00013111,"INCLINATION":53.2175,"RA_OF_ASC_NODE":144.7569,"ARG_OF_PERICENTER":92.8104,"MEAN_ANOMALY":267.3038,"EPHEMERIS_TYPE":0,"CLASSIFICATION_TYPE":"U","NORAD_CAT_ID":52688,"ELEMENT_SET_NO":999,"REV_AT_EPOCH":21109,"BSTAR":8.993393e-6,"MEAN_MOTION_DOT":-1.45e-6,"MEAN_MOTION_DDOT":0}]
